start=new Date('2023-06-01T00:00:00.000Z').valueOf();
sats=[{"BSTAR":"0.00004954200000","PERIOD":"95.438","INCLINATION":"53.2157","GP_ID":"232896201","COUNTRY_CODE":"US","MEAN_ELEMENT_THEORY":"SGP4","MEAN_ANOMALY":"285.2485","FILE":"3921767","MEAN_MOTION_DDOT":"0.0000000000000","REF_FRAME":"TEME","TIME_SYSTEM":"UTC","NORAD_CAT_ID":"53922","CLASSIFICATION_TYPE":"U","PERIAPSIS":"539.146","OBJECT_NAME":"STARLINK-5002","LAUNCH_DATE":"2022-09-24","DECAY_DATE":null,"SITE":"AFETR","OBJECT_TYPE":"PAYLOAD","TLE_LINE1":"1 53922U 22119AN  23151.38369580  .00000501  00000-0  49542-4 0  9994","MEAN_MOTION":"15.08840623","MEAN_MOTION_DOT":"0.00000501","APOAPSIS":"540.340","OBJECT_ID":"2022-119AN","ARG_OF_PERICENTER":"74.8603","EPOCH":"2023-05-31T09:12:31.317120","ECCENTRICITY":"0.00008630","TLE_LINE2":"2 53922  53.2157 182.7769 0000863  74.8603 285.2485 15.08840623 38856","EPHEMERIS_TYPE":"0","RA_OF_ASC_NODE":"182.7769","RCS_SIZE":"LARGE","REV_AT_EPOCH":"3885","ELEMENT_SET_NO":"999","CENTER_NAME":"EARTH","SEMIMAJOR_AXIS":"6917.878"},{"NORAD_CAT_ID":"53923","CLASSIFICATION_TYPE":"U","PERIAPSIS":"539.103","OBJECT_NAME":"STARLINK-5004","BSTAR":"-0.00015880000000","PERIOD":"95.437","INCLINATION":"53.2157","GP_ID":"232929214","COUNTRY_CODE":"US","MEAN_ANOMALY":"245.5604","MEAN_ELEMENT_THEORY":"SGP4","FILE":"3922037","REF_FRAME":"TEME","MEAN_MOTION_DDOT":"0.0000000000000","TIME_SYSTEM":"UTC","MEAN_MOTION":"15.08845496","MEAN_MOTION_DOT":"-0.00002814","APOAPSIS":"540.355","OBJECT_ID":"2022-119AP","ARG_OF_PERICENTER":"114.5483","EPOCH":"2023-05-31T18:55:26.635008","LAUNCH_DATE":"2022-09-24","DECAY_DATE":null,"SITE":"AFETR","OBJECT_TYPE":"PAYLOAD","TLE_LINE1":"1 53923U 22119AP  23151.78850272 -.00002814  00000-0 -15880-3 0  9990","RCS_SIZE":"LARGE","RA_OF_ASC_NODE":"181.0383","ECCENTRICITY":"0.00009050","TLE_LINE2":"2 53923  53.2157 181.0383 0000905 114.5483 245.5604 15.08845496 38918","EPHEMERIS_TYPE":"0","ELEMENT_SET_NO":"999","CENTER_NAME":"EARTH","SEMIMAJOR_AXIS":"6917.864","REV_AT_EPOCH":"3891"},{"RCS_SIZE":"LARGE","RA_OF_ASC_NODE":"176.0868","ECCENTRICITY":"0.00011890","TLE_LINE2":"2 53924  53.2156 176.0868 0001189  80.8893 279.2233 15.08838904 38980","EPHEMERIS_TYPE":"0","ELEMENT_SET_NO":"999","CENTER_NAME":"EARTH","SEMIMAJOR_AXIS":"6917.884","REV_AT_EPOCH":"3898","NORAD_CAT_ID":"53924","CLASSIFICATION_TYPE":"U","PERIAPSIS":"538.926","OBJECT_NAME":"STARLINK-5001","INCLINATION":"53.2156","PERIOD":"95.438","BSTAR":"0.00003919200000","GP_ID":"232927962","COUNTRY_CODE":"US","MEAN_ELEMENT_THEORY":"SGP4","MEAN_ANOMALY":"279.2233","FILE":"3922037","REF_FRAME":"TEME","MEAN_MOTION_DDOT":"0.0000000000000","TIME_SYSTEM":"UTC","MEAN_MOTION_DOT":"0.00000336","MEAN_MOTION":"15.08838904","APOAPSIS":"540.571","OBJECT_ID":"2022-119AQ","ARG_OF_PERICENTER":"80.8893","EPOCH":"2023-05-31T19:04:04.667808","LAUNCH_DATE":"2022-09-24","DECAY_DATE":null,"SITE":"AFETR","OBJECT_TYPE":"PAYLOAD","TLE_LINE1":"1 53924U 22119AQ  23151.79449847  .00000336  00000-0  39192-4 0  9992"},{"ELEMENT_SET_NO":"999","SEMIMAJOR_AXIS":"6917.801","CENTER_NAME":"EARTH","REV_AT_EPOCH":"3845","RA_OF_ASC_NODE":"182.0989","RCS_SIZE":"LARGE","ECCENTRICITY":"0.00019230","EPHEMERIS_TYPE":"0","TLE_LINE2":"2 53925  53.2173 182.0989 0001923 126.6793 233.4376 15.08866122 38450","MEAN_MOTION_DOT":"-0.00004230","MEAN_MOTION":"15.08866122","OBJECT_ID":"2022-119AR","APOAPSIS":"540.996","ARG_OF_PERICENTER":"126.6793","EPOCH":"2023-05-31T12:02:04.428096","LAUNCH_DATE":"2022-09-24","DECAY_DATE":null,"OBJECT_TYPE":"PAYLOAD","SITE":"AFETR","TLE_LINE1":"1 53925U 22119AR  23151.50144014 -.00004230  00000-0 -24763-3 0  9996","CLASSIFICATION_TYPE":"U","NORAD_CAT_ID":"53925","PERIAPSIS":"538.335","OBJECT_NAME":"STARLINK-5011","GP_ID":"232900424","COUNTRY_CODE":"US","BSTAR":"-0.00024763000000","PERIOD":"95.436","INCLINATION":"53.2173","MEAN_ELEMENT_THEORY":"SGP4","MEAN_ANOMALY":"233.4376","FILE":"3921849","TIME_SYSTEM":"UTC","MEAN_MOTION_DDOT":"0.0000000000000","REF_FRAME":"TEME"},{"PERIAPSIS":"539.029","NORAD_CAT_ID":"53926","CLASSIFICATION_TYPE":"U","OBJECT_NAME":"STARLINK-5014","MEAN_ANOMALY":"286.2929","MEAN_ELEMENT_THEORY":"SGP4","PERIOD":"95.438","BSTAR":"0.00006054400000","INCLINATION":"53.2149","GP_ID":"232896702","COUNTRY_CODE":"US","REF_FRAME":"TEME","MEAN_MOTION_DDOT":"0.0000000000000","TIME_SYSTEM":"UTC","FILE":"3921767","APOAPSIS":"540.460","OBJECT_ID":"2022-119AS","MEAN_MOTION_DOT":"0.00000676","MEAN_MOTION":"15.08840303","EPOCH":"2023-05-31T10:51:13.771872","ARG_OF_PERICENTER":"73.8176","DECAY_DATE":null,"LAUNCH_DATE":"2022-09-24","TLE_LINE1":"1 53926U 22119AS  23151.45224273  .00000676  00000-0  60544-4 0  9993","SITE":"AFETR","OBJECT_TYPE":"PAYLOAD","RA_OF_ASC_NODE":"177.5041","RCS_SIZE":"LARGE","TLE_LINE2":"2 53926  53.2149 177.5041 0001034  73.8176 286.2929 15.08840303 38940","EPHEMERIS_TYPE":"0","ECCENTRICITY":"0.00010340","ELEMENT_SET_NO":"999","CENTER_NAME":"EARTH","SEMIMAJOR_AXIS":"6917.879","REV_AT_EPOCH":"3894"},{"CENTER_NAME":"EARTH","SEMIMAJOR_AXIS":"6917.879","ELEMENT_SET_NO":"999","REV_AT_EPOCH":"3898","RCS_SIZE":"LARGE","RA_OF_ASC_NODE":"176.1447","ECCENTRICITY":"0.00010980","TLE_LINE2":"2 53927  53.2159 176.1447 0001098  87.3553 272.7565 15.08840486 38988","EPHEMERIS_TYPE":"0","ARG_OF_PERICENTER":"87.3553","EPOCH":"2023-05-31T19:14:41.517024","MEAN_MOTION":"15.08840486","MEAN_MOTION_DOT":"0.00000260","APOAPSIS":"540.503","OBJECT_ID":"2022-119AT","SITE":"AFETR","OBJECT_TYPE":"PAYLOAD","TLE_LINE1":"1 53927U 22119AT  23151.80186941  .00000260  00000-0  34421-4 0  9996","LAUNCH_DATE":"2022-09-24","DECAY_DATE":null,"OBJECT_NAME":"STARLINK-5008","NORAD_CAT_ID":"53927","CLASSIFICATION_TYPE":"U","PERIAPSIS":"538.984","FILE":"3922037","REF_FRAME":"TEME","MEAN_MOTION_DDOT":"0.0000000000000","TIME_SYSTEM":"UTC","INCLINATION":"53.2159","PERIOD":"95.438","BSTAR":"0.00003442100000","GP_ID":"232928715","COUNTRY_CODE":"US","MEAN_ANOMALY":"272.7565","MEAN_ELEMENT_THEORY":"SGP4"},{"RCS_SIZE":"LARGE","RA_OF_ASC_NODE":"171.0868","ECCENTRICITY":"0.00010170","EPHEMERIS_TYPE":"0","TLE_LINE2":"2 53928  53.2156 171.0868 0001017  89.4947 270.6161 15.08839122 39051","ELEMENT_SET_NO":"999","SEMIMAJOR_AXIS":"6917.883","CENTER_NAME":"EARTH","REV_AT_EPOCH":"3905","CLASSIFICATION_TYPE":"U","NORAD_CAT_ID":"53928","PERIAPSIS":"539.045","OBJECT_NAME":"STARLINK-5009","GP_ID":"232927463","COUNTRY_CODE":"US","PERIOD":"95.438","BSTAR":"0.00003981700000","INCLINATION":"53.2156","MEAN_ANOMALY":"270.6161","MEAN_ELEMENT_THEORY":"SGP4","FILE":"3922037","TIME_SYSTEM":"UTC","MEAN_MOTION_DDOT":"0.0000000000000","REF_FRAME":"TEME","MEAN_MOTION_DOT":"0.00000346","MEAN_MOTION":"15.08839122","OBJECT_ID":"2022-119AU","APOAPSIS":"540.452","ARG_OF_PERICENTER":"89.4947","EPOCH":"2023-05-31T19:02:05.275968","LAUNCH_DATE":"2022-09-24","DECAY_DATE":null,"OBJECT_TYPE":"PAYLOAD","SITE":"AFETR","TLE_LINE1":"1 53928U 22119AU  23151.79311662  .00000346  00000-0  39817-4 0  9994"},{"LAUNCH_DATE":"2022-09-24","DECAY_DATE":null,"OBJECT_TYPE":"PAYLOAD","SITE":"AFETR","TLE_LINE1":"1 53929U 22119AV  23151.77745298 -.00001102  00000-0 -51140-4 0  9995","MEAN_MOTION_DOT":"-0.00001102","MEAN_MOTION":"15.08841104","OBJECT_ID":"2022-119AV","APOAPSIS":"540.433","ARG_OF_PERICENTER":"85.4624","EPOCH":"2023-05-31T18:39:31.937472","GP_ID":"232927713","COUNTRY_CODE":"US","BSTAR":"-0.00005114000000","PERIOD":"95.437","INCLINATION":"53.2154","MEAN_ANOMALY":"274.6482","MEAN_ELEMENT_THEORY":"SGP4","FILE":"3922037","TIME_SYSTEM":"UTC","REF_FRAME":"TEME","MEAN_MOTION_DDOT":"0.0000000000000","CLASSIFICATION_TYPE":"U","NORAD_CAT_ID":"53929","PERIAPSIS":"539.051","OBJECT_NAME":"STARLINK-5018","REV_AT_EPOCH":"3891","ELEMENT_SET_NO":"999","SEMIMAJOR_AXIS":"6917.877","CENTER_NAME":"EARTH","ECCENTRICITY":"0.00009990","EPHEMERIS_TYPE":"0","TLE_LINE2":"2 53929  53.2154 180.9707 0000999  85.4624 274.6482 15.08841104 38914","RCS_SIZE":"LARGE","RA_OF_ASC_NODE":"180.9707"},{"ELEMENT_SET_NO":"999","CENTER_NAME":"EARTH","SEMIMAJOR_AXIS":"6917.817","REV_AT_EPOCH":"3905","RCS_SIZE":"LARGE","RA_OF_ASC_NODE":"170.9997","ECCENTRICITY":"0.00005300","TLE_LINE2":"2 53930  53.2155 170.9997 0000530  63.6796 296.4251 15.08860744 39059","EPHEMERIS_TYPE":"0","MEAN_MOTION_DOT":"0.00003468","MEAN_MOTION":"15.08860744","APOAPSIS":"540.049","OBJECT_ID":"2022-119AW","ARG_OF_PERICENTER":"63.6796","EPOCH":"2023-05-31T18:40:51.366720","LAUNCH_DATE":"2022-09-24","DECAY_DATE":null,"SITE":"AFETR","OBJECT_TYPE":"PAYLOAD","TLE_LINE1":"1 53930U 22119AW  23151.77837230  .00003468  00000-0  23573-3 0  9998","NORAD_CAT_ID":"53930","CLASSIFICATION_TYPE":"U","PERIAPSIS":"539.315","OBJECT_NAME":"STARLINK-5010","PERIOD":"95.436","INCLINATION":"53.2155","BSTAR":"0.00023573000000","GP_ID":"232928964","COUNTRY_CODE":"US","MEAN_ELEMENT_THEORY":"SGP4","MEAN_ANOMALY":"296.4251","FILE":"3922037","MEAN_MOTION_DDOT":"0.0000000000000","REF_FRAME":"TEME","TIME_SYSTEM":"UTC"},{"GP_ID":"232929215","COUNTRY_CODE":"US","BSTAR":"0.00005840600000","PERIOD":"95.438","INCLINATION":"53.2151","MEAN_ANOMALY":"288.5294","MEAN_ELEMENT_THEORY":"SGP4","FILE":"3922037","TIME_SYSTEM":"UTC","MEAN_MOTION_DDOT":"0.0000000000000","REF_FRAME":"TEME","CLASSIFICATION_TYPE":"U","NORAD_CAT_ID":"53931","PERIAPSIS":"539.154","OBJECT_NAME":"STARLINK-5015","LAUNCH_DATE":"2022-09-24","DECAY_DATE":null,"OBJECT_TYPE":"PAYLOAD","SITE":"AFETR","TLE_LINE1":"1 53931U 22119AX  23151.76962731  .00000642  00000-0  58406-4 0  9998","MEAN_MOTION_DOT":"0.00000642","MEAN_MOTION":"15.08840672","OBJECT_ID":"2022-119AX","APOAPSIS":"540.333","ARG_OF_PERICENTER":"71.5791","EPOCH":"2023-05-31T18:28:15.799584","ECCENTRICITY":"0.00008520","EPHEMERIS_TYPE":"0","TLE_LINE2":"2 53931  53.2151 165.9593 0000852  71.5791 288.5294 15.08840672 39127","RCS_SIZE":"LARGE","RA_OF_ASC_NODE":"165.9593","REV_AT_EPOCH":"3912","ELEMENT_SET_NO":"999","SEMIMAJOR_AXIS":"6917.878","CENTER_NAME":"EARTH"}];
